[{"OBJECT_NAME":"SHIYAN-6 03 (SY-6 03)","OBJECT_ID":"2021-028A","EPOCH":"2026-03-09T22:49:05.080800","MEAN_MOTION":13.77596335,"ECCENTRICITY":0.0046038,"INCLINATION":99.5345,"RA_OF_ASC_NODE":82.5401,"ARG_OF_PERICENTER":347.8227,"MEAN_ANOMALY":12.1807,"EPHEMERIS_TYPE":0,"CLASSIFICATION_TYPE":"U","NORAD_CAT_ID":48157,"ELEMENT_SET_NO":999,"REV_AT_EPOCH":24584,"BSTAR":1.7068221e-5,"MEAN_MOTION_DOT":-2.9e-7,"MEAN_MOTION_DDOT":0},{"OBJECT_NAME":"SL-14 R\/B","OBJECT_ID":"1989-018B","EPOCH":"2026-03-09T21:16:46.032096","MEAN_MOTION":13.84167547,"ECCENTRICITY":0.00184312,"INCLINATION":82.5174,"RA_OF_ASC_NODE":272.4637,"ARG_OF_PERICENTER":122.2674,"MEAN_ANOMALY":238.0275,"EPHEMERIS_TYPE":0,"CLASSIFICATION_TYPE":"U","NORAD_CAT_ID":19852,"ELEMENT_SET_NO":999,"REV_AT_EPOCH":87030,"BSTAR":2.3436584e-5,"MEAN_MOTION_DOT":4.1e-7,"MEAN_MOTION_DDOT":0}]
